IRIDIUM 112             
1 41925U 17003J   25045.93997920  .00000136  00000+0  41482-4 0  9998
2 41925  86.3953 291.9080 0001915  89.0681 271.0734 14.34217208423436
IRIDIUM 111             
1 41926U 17003K   25045.92729452  .00000024  00000+0  15732-5 0  9997
2 41926  86.3953 291.9733 0002344  84.6465 275.4998 14.34217912423410
IRIDIUM 113             
1 42803U 17039A   25045.76772179  .00000607  00000+0  20978-3 0  9990
2 42803  86.4039 165.8825 0001809 109.9180 250.2210 14.34216898401328
IRIDIUM 123             
1 42804U 17039B   25045.94873365  .00000787  00000+0  27385-3 0  9998
2 42804  86.4008 197.2260 0002255  93.4452 266.7001 14.34216305400111
IRIDIUM 120             
1 42805U 17039C   25045.62184226  .00000078  00000+0  20660-4 0  9998
2 42805  86.4029 165.7896 0002329  91.0862 269.0601 14.34218300401290
IRIDIUM 115             
1 42806U 17039D   25046.41609760  .00000916  00000+0  26613-3 0  9996
2 42806  86.4568 165.5193 0002697  97.7703 262.3804 14.43285817404057
IRIDIUM 118             
1 42807U 17039E   25045.91067634  .00000476  00000+0  16295-3 0  9995
2 42807  86.4006 197.2421 0001990  95.2254 264.9169 14.34213254400100
IRIDIUM 117             
1 42808U 17039F   25045.92971085 -.00000029  00000+0 -17574-4 0  9999
2 42808  86.4008 197.1968 0002269  96.3338 263.8116 14.34217208400139
